STARLINK-3884           
1 52497U 22049AY  26068.22064939  .00002440  00000+0  17124-3 0  9998
2 52497  53.2171  51.2237 0000645  85.1148 274.9918 15.08852278212326
ICEYE-X65               
1 66300U 25248H   26068.07195372  .00003385  00000+0  23070-3 0  9995
2 66300  45.3996 300.9889 0005141 200.5324 159.5352 15.08278623 20405
