[{"OBJECT_NAME":"STARLINK-3884","OBJECT_ID":"2022-049AY","EPOCH":"2026-03-09T05:17:44.107296","MEAN_MOTION":15.08852278,"ECCENTRICITY":6.456e-5,"INCLINATION":53.2171,"RA_OF_ASC_NODE":51.2237,"ARG_OF_PERICENTER":85.1148,"MEAN_ANOMALY":274.9918,"EPHEMERIS_TYPE":0,"CLASSIFICATION_TYPE":"U","NORAD_CAT_ID":52497,"ELEMENT_SET_NO":999,"REV_AT_EPOCH":21232,"BSTAR":0.00017123826,"MEAN_MOTION_DOT":2.44e-5,"MEAN_MOTION_DDOT":0},{"OBJECT_NAME":"ICEYE-X65","OBJECT_ID":"2025-248H","EPOCH":"2026-03-09T01:43:36.801408","MEAN_MOTION":15.08278623,"ECCENTRICITY":0.0005141,"INCLINATION":45.3996,"RA_OF_ASC_NODE":300.9889,"ARG_OF_PERICENTER":200.5324,"MEAN_ANOMALY":159.5352,"EPHEMERIS_TYPE":0,"CLASSIFICATION_TYPE":"U","NORAD_CAT_ID":66300,"ELEMENT_SET_NO":999,"REV_AT_EPOCH":2040,"BSTAR":0.00023069723,"MEAN_MOTION_DOT":3.385e-5,"MEAN_MOTION_DDOT":0}]
